LEMUR-2-ROUNDTRIPPER    
1 62711U 25009DG  26181.66705167  .00008736  00000+0  63617-3 0  9998
2 62711  97.7238 264.3280 0005084  99.0849 261.0952 15.04004026 79650
LEMUR-2-MYNAMEISJEFF    
1 62712U 25009DH  26181.66546008  .00008303  00000+0  60505-3 0  9999
2 62712  97.7281 264.7155 0003771 128.3768 231.7797 15.03997260 79652
LEMUR-2-LEIA-PHILIP     
1 63246U 25052AN  26181.63559451  .00001619  00000+0  14442-3 0  9995
2 63246  97.6814  73.3591 0004179 162.8593 197.2771 14.97348750 70684
LEMUR-2-LIA-MARTIN      
1 63248U 25052AQ  26181.50240533  .00004585  00000+0  39412-3 0  9990
2 63248  97.6868  73.7227 0004382 128.9274 231.2339 14.97903989 70679
LEMUR-2-DELOITTE-1      
1 63259U 25052BB  26181.28012538  .00002866  00000+0  24961-3 0  9992
2 63259  97.6909  73.8355 0002715  70.4952 289.6563 14.97690005 70658
LEMUR-2-EMERSONROSE     
1 63261U 25052BD  26181.24244490  .00004056  00000+0  33802-3 0  9992
2 63261  97.6873  74.3798 0002345  78.3071 281.8415 14.99172394 70698
LEMUR-2-MARACHE-FRAN    
1 63262U 25052BE  26181.27547781  .00003860  00000+0  31336-3 0  9997
2 63262  97.6906  74.7579 0004397 326.0371  34.0571 15.00210472 70720
LEMUR-2-THEFALCONER     
1 63264U 25052BG  26181.24163738  .00003601  00000+0  31415-3 0  9993
2 63264  97.6844  73.4024 0001282  21.6514 338.4763 14.97467969 70646
LEMUR-2-UNTITLED-SC     
1 63351U 25061A   26181.57579409  .00003079  00000+0  17486-3 0  9993
2 63351  97.5641 156.8406 0017653 214.2040 145.8056 15.13561193 69613
LEMUR-2-ESPERANZA       
1 63352U 25061B   26181.75044306  .00003838  00000+0  21646-3 0  9993
2 63352  97.5648 157.1107 0017304 212.8210 147.1948 15.13654893 69647
LEMUR-2-KREMPEL-BRO2    
1 63353U 25061C   26181.57523451  .00003198  00000+0  17876-3 0  9996
2 63353  97.5695 157.4871 0018398 205.6596 154.3725 15.14091810 69639
LEMUR-2-THERMORAPTOR    
1 63354U 25061D   26181.75484730  .00004280  00000+0  23741-3 0  9994
2 63354  97.5698 157.7439 0018184 204.0520 155.9864 15.14176048 69660
LEMUR-2-NEUROSPICY      
1 63355U 25061E   26181.72548194  .00003565  00000+0  19790-3 0  9991
2 63355  97.5627 157.3304 0015965 206.9832 153.0571 15.14292306 69661
LEMUR-2-TILLINFINITY    
1 63356U 25061F   26181.16103987  .00003580  00000+0  19538-3 0  9994
2 63356  97.5610 157.0692 0017448 197.1084 162.9562 15.14871146 69607
LEMUR-2-KREMPEL-BRO1    
1 63357U 25061G   26181.73073682  .00003679  00000+0  20169-3 0  9997
2 63357  97.5614 157.5480 0018144 196.4518 163.6128 15.14682929 69683
LEMUR-2-LANGER2SPACE    
1 63358U 25061H   26181.82602582  .00004142  00000+0  22876-3 0  9998
2 63358  97.5617 157.4512 0015880 204.9102 155.1365 15.14378612 69680
LEMUR-2-BALTO           
1 63395U 25052BH  26181.66036694  .00005641  00000+0  45533-3 0  9996
2 63395  97.6926  75.1140 0006267  20.9553 339.1926 15.00231322 70784
LEMUR-2-KRISH           
1 64561U 25135AK  26181.31554902  .00004716  00000+0  42208-3 0  9991
2 64561  97.7753 296.1017 0001212 107.3321 252.8033 14.96319063 55882
LEMUR-2-HUBBLE-4        
1 64565U 25135AP  26181.73819845  .00001887  00000+0  18400-3 0  9994
2 64565  97.7709 295.4832 0001417 207.6589 152.4556 14.93649063 55890
LEMUR-2-SEJONG-2        
1 64586U 25135BL  26181.80923855  .00005223  00000+0  46103-3 0  9991
2 64586  97.7714 296.7373 0002681 283.4874  76.6049 14.96811013 55989
LEMUR-2-HUBBLE-5        
1 64840U 25135BT  26181.55123108  .00001496  00000+0  14502-3 0  9995
2 64840  97.7730 295.9519 0004148 301.4991  58.5824 14.94176287 55901
LEMUR-2-KARENDARRELL    
1 64841U 25135BU  26181.79153215  .00008546  00000+0  68521-3 0  9997
2 64841  97.7695 297.9775 0010953 151.7760 208.4059 15.00310262 56053
LEMUR-2-LUCILLE-ROSE    
1 65403U 25135BV  26181.29810948  .00006269  00000+0  50391-3 0  9996
2 65403  97.7744 297.5162 0012870 236.0357 123.9644 15.00312520 50603
LEMUR-2-AFFIE-WAUWIE    
1 66295U 25248C   26181.65958691  .00023765  00000+0  86902-3 0  9996
2 66295  45.3936  41.9699 0008116 173.5015 186.5981 15.27712272 36650
LEMUR-2-DEANANDMAEVE    
1 66678U 25276N   26180.95594527  .00007297  00000+0  34290-3 0  9993
2 66678  97.4214 254.2202 0004562 325.4620  34.6318 15.19885958 32355
LEMUR-2-STAS-GORBUK     
1 66686U 25276W   26181.63201678  .00005749  00000+0  27381-3 0  9993
2 66686  97.4246 254.9389 0003785 322.2428  37.8541 15.19517784 32452
LEMUR-2-TEODOR          
1 66768U 25276DG  26181.20636753  .00005558  00000+0  25233-3 0  9995
2 66768  97.4153 254.7732 0002365 103.6748 256.4751 15.21188039 32428
LEMUR-2-LAILA           
1 66776U 25276DQ  26181.44146407  .00005596  00000+0  25236-3 0  9997
2 66776  97.4174 255.1338 0002784 116.7070 243.4451 15.21414286 32468
LEMUR-2-CELIJO-SB-PK    
1 66781U 25276DW  26181.77803231  .00006464  00000+0  52207-3 0  9997
2 66781  97.5221 252.1084 0007890  99.7310 260.4805 15.00135355 24662
LEMUR-2-FINNIAN         
1 66782U 25276DX  26181.15133008  .00002931  00000+0  23721-3 0  9992
2 66782  97.5328 251.7348 0008595  51.2340 308.9651 15.00481518 21948
