OBJECT_NAME,OBJECT_ID,EPOCH,MEAN_MOTION,ECCENTRICITY,INCLINATION,RA_OF_ASC_NODE,ARG_OF_PERICENTER,MEAN_ANOMALY,EPHEMERIS_TYPE,CLASSIFICATION_TYPE,NORAD_CAT_ID,ELEMENT_SET_NO,REV_AT_EPOCH,BSTAR,MEAN_MOTION_DOT,MEAN_MOTION_DDOT
LEMUR-2-ROUNDTRIPPER,2025-009DG,2026-06-30T16:00:33.264288,15.04004026,.0005084,97.7238,264.3280,99.0849,261.0952,0,U,62711,999,7965,.63617E-3,.8736E-4,0
LEMUR-2-MYNAMEISJEFF,2025-009DH,2026-06-30T15:58:15.750912,15.03997260,.0003771,97.7281,264.7155,128.3768,231.7797,0,U,62712,999,7965,.60505E-3,.8303E-4,0
LEMUR-2-LEIA-PHILIP,2025-052AN,2026-06-30T15:15:15.365664,14.97348750,.0004179,97.6814,73.3591,162.8593,197.2771,0,U,63246,999,7068,.14442E-3,.1619E-4,0
LEMUR-2-LIA-MARTIN,2025-052AQ,2026-06-30T12:03:27.820512,14.97903989,.00043826,97.6868,73.7227,128.9274,231.2339,0,U,63248,999,7067,.39411595E-3,.4585E-4,0
LEMUR-2-DELOITTE-1,2025-052BB,2026-06-30T06:43:22.832832,14.97690005,.00027159,97.6909,73.8355,70.4952,289.6563,0,U,63259,999,7065,.24961174E-3,.2866E-4,0
LEMUR-2-EMERSONROSE,2025-052BD,2026-06-30T05:49:07.239360,14.99172394,.00023457,97.6873,74.3798,78.3071,281.8415,0,U,63261,999,7069,.33802068E-3,.4056E-4,0
LEMUR-2-MARACHE-FRAN,2025-052BE,2026-06-30T06:36:41.282784,15.00210472,.0004397,97.6906,74.7579,326.0371,34.0571,0,U,63262,999,7072,.31335519E-3,.386E-4,0
LEMUR-2-THEFALCONER,2025-052BG,2026-06-30T05:47:57.469632,14.97467969,.00012823,97.6844,73.4024,21.6514,338.4763,0,U,63264,999,7064,.3141545E-3,.3601E-4,0
LEMUR-2-UNTITLED-SC,2025-061A,2026-06-30T13:49:08.609376,15.13561193,.0017653,97.5641,156.8406,214.2040,145.8056,0,U,63351,999,6961,.17486E-3,.3079E-4,0
LEMUR-2-ESPERANZA,2025-061B,2026-06-30T18:00:38.280384,15.13654893,.0017304,97.5648,157.1107,212.8210,147.1948,0,U,63352,999,6964,.21646E-3,.3838E-4,0
LEMUR-2-KREMPEL-BRO2,2025-061C,2026-06-30T13:48:20.261664,15.14091810,.0018398,97.5695,157.4871,205.6596,154.3725,0,U,63353,999,6963,.17876E-3,.3198E-4,0
LEMUR-2-THERMORAPTOR,2025-061D,2026-06-30T18:06:58.806720,15.14176048,.0018184,97.5698,157.7439,204.0520,155.9864,0,U,63354,999,6966,.23741E-3,.428E-4,0
LEMUR-2-NEUROSPICY,2025-061E,2026-06-30T17:24:41.639616,15.14292306,.0015965,97.5627,157.3304,206.9832,153.0571,0,U,63355,999,6966,.1979E-3,.3565E-4,0
LEMUR-2-TILLINFINITY,2025-061F,2026-06-30T03:51:53.844768,15.14871146,.00174485,97.5610,157.0692,197.1084,162.9562,0,U,63356,999,6960,.19538481E-3,.358E-4,0
LEMUR-2-KREMPEL-BRO1,2025-061G,2026-06-30T17:32:15.661248,15.14682929,.0018144,97.5614,157.5480,196.4518,163.6128,0,U,63357,999,6968,.20169E-3,.3679E-4,0
LEMUR-2-LANGER2SPACE,2025-061H,2026-06-30T19:49:28.630848,15.14378612,.001588,97.5617,157.4512,204.9102,155.1365,0,U,63358,999,6968,.22876E-3,.4142E-4,0
LEMUR-2-BALTO,2025-052BH,2026-06-30T15:50:55.703616,15.00231322,.0006267,97.6926,75.1140,20.9553,339.1926,0,U,63395,999,7078,.45533E-3,.5641E-4,0
LEMUR-2-KRISH,2025-135AK,2026-06-30T07:34:23.435328,14.96319063,.0001212,97.7753,296.1017,107.3321,252.8033,0,U,64561,999,5588,.42207826E-3,.4716E-4,0
LEMUR-2-HUBBLE-4,2025-135AP,2026-06-30T17:43:00.346080,14.93649063,.0001417,97.7709,295.4832,207.6589,152.4556,0,U,64565,999,5589,.184E-3,.1887E-4,0
LEMUR-2-SEJONG-2,2025-135BL,2026-06-30T19:25:18.210720,14.96811013,.0002681,97.7714,296.7373,283.4874,76.6049,0,U,64586,999,5598,.46103E-3,.5223E-4,0
LEMUR-2-HUBBLE-5,2025-135BT,2026-06-30T13:13:46.365312,14.94176287,.0004148,97.7730,295.9519,301.4991,58.5824,0,U,64840,999,5590,.14502E-3,.1496E-4,0
LEMUR-2-KARENDARRELL,2025-135BU,2026-06-30T18:59:48.377760,15.00310262,.0010953,97.7695,297.9775,151.7760,208.4059,0,U,64841,999,5605,.68521E-3,.8546E-4,0
LEMUR-2-LUCILLE-ROSE,2025-135BV,2026-06-30T07:09:16.659072,15.00312520,.00128708,97.7744,297.5162,236.0357,123.9644,0,U,65403,999,5060,.5039056E-3,.6269E-4,0
LEMUR-2-AFFIE-WAUWIE,2025-248C,2026-06-30T15:49:48.309024,15.27712272,.0008116,45.3936,41.9699,173.5015,186.5981,0,U,66295,999,3665,.86902E-3,.23765E-3,0
LEMUR-2-DEANANDMAEVE,2025-276N,2026-06-29T22:56:33.671328,15.19885958,.00045624,97.4214,254.2202,325.4620,34.6318,0,U,66678,999,3235,.342895E-3,.7297E-4,0
LEMUR-2-STAS-GORBUK,2025-276W,2026-06-30T15:10:06.249792,15.19517784,.0003785,97.4246,254.9389,322.2428,37.8541,0,U,66686,999,3245,.27381E-3,.5749E-4,0
LEMUR-2-TEODOR,2025-276DG,2026-06-30T04:57:10.154592,15.21188039,.00023657,97.4153,254.7732,103.6748,256.4751,0,U,66768,999,3242,.25233152E-3,.5558E-4,0
LEMUR-2-LAILA,2025-276DQ,2026-06-30T10:35:42.495648,15.21414286,.00027843,97.4174,255.1338,116.7070,243.4451,0,U,66776,999,3246,.25235815E-3,.5596E-4,0
LEMUR-2-CELIJO-SB-PK,2025-276DW,2026-06-30T18:40:21.991584,15.00135355,.000789,97.5221,252.1084,99.7310,260.4805,0,U,66781,999,2466,.52207E-3,.6464E-4,0
LEMUR-2-FINNIAN,2025-276DX,2026-06-30T03:37:54.918912,15.00481518,.00085956,97.5328,251.7348,51.2340,308.9651,0,U,66782,999,2194,.23721432E-3,.2931E-4,0
